{"type": "FeatureCollection", "features": [ {"type": "Feature", "properties": {"norad_id": 57401, "name": "TIANMU-1 09", "group": "weather", "lat": 51.86665749755915, "lon": -124.71566770498615, "alt_km": 474.9950057092692, "timestamp": "2025-12-22T23:36:20.342495+00:00", "meta": {"OBJECT_NAME": "TIANMU-1 09", "OBJECT_ID": "2023-101C", "EPOCH": "2025-12-22T13:37:17.607360", "MEAN_MOTION": 15.28219722, "ECCENTRICITY": 0.00063938, "INCLINATION": 97.2805, "RA_OF_ASC_NODE": 45.5052, "ARG_OF_PERICENTER": 56.9176, "MEAN_ANOMALY": 303.2677, "EPHEMERIS_TYPE": 0, "CLASSIFICATION_TYPE": "U", "NORAD_CAT_ID": 57401, "ELEMENT_SET_NO": 999, "REV_AT_EPOCH": 13465, "BSTAR": 0.00030810086, "MEAN_MOTION_DOT": 8.406e-05, "MEAN_MOTION_DDOT": 0}, "tle": {"line1": "1 57401U 23101C   25356.56756490  .00008406  00000+0  30810-3 0  9999", "line2": "2 57401  97.2805  45.5052 0006393  56.9176 303.2677 15.28219722134652"}}, "geometry": {"type": "Point", "coordinates": [-124.71566770498615, 51.86665749755915]}}, {"type": "Feature", "properties": {"norad_id": 57402, "name": "TIANMU-1 10", "group": "weather", "lat": -60.308089468587255, "lon": 59.74341956157093, "alt_km": 490.62178247073643, "timestamp": "2025-12-22T23:36:20.342505+00:00", "meta": {"OBJECT_NAME": "TIANMU-1 10", "OBJECT_ID": "2023-101D", "EPOCH": "2025-12-22T14:26:38.049792", "MEAN_MOTION": 15.28211537, "ECCENTRICITY": 0.00081106, "INCLINATION": 97.2884, "RA_OF_ASC_NODE": 46.3989, "ARG_OF_PERICENTER": 54.665, "MEAN_ANOMALY": 305.5347, "EPHEMERIS_TYPE": 0, "CLASSIFICATION_TYPE": "U", "NORAD_CAT_ID": 57402, "ELEMENT_SET_NO": 999, "REV_AT_EPOCH": 13465, "BSTAR": 0.00028422601, "MEAN_MOTION_DOT": 7.749e-05, "MEAN_MOTION_DDOT": 0}, "tle": {"line1": "1 57402U 23101D   25356.60182928  .00007749  00000+0  28423-3 0  9990", "line2": "2 57402  97.2884  46.3989 0008110  54.6650 305.5347 15.28211537134654"}}, "geometry": {"type": "Point", "coordinates": [59.74341956157093, -60.308089468587255]}}, {"type": "Feature", "properties": {"norad_id": 57490, "name": "FENGYUN 3F", "group": "weather", "lat": 6.456975668579509, "lon": -113.89525247931884, "alt_km": 827.4506113143743, "timestamp": "2025-12-22T23:36:20.342516+00:00", "meta": {"OBJECT_NAME": "FENGYUN 3F", "OBJECT_ID": "2023-111A", "EPOCH": "2025-12-22T14:20:08.932704", "MEAN_MOTION": 14.19896032, "ECCENTRICITY": 7.874e-05, "INCLINATION": 98.707, "RA_OF_ASC_NODE": 64.7311, "ARG_OF_PERICENTER": 114.9811, "MEAN_ANOMALY": 245.1448, "EPHEMERIS_TYPE": 0, "CLASSIFICATION_TYPE": "U", "NORAD_CAT_ID": 57490, "ELEMENT_SET_NO": 999, "REV_AT_EPOCH": 12380, "BSTAR": 5.613798e-05, "MEAN_MOTION_DOT": 7.6e-07, "MEAN_MOTION_DDOT": 0}, "tle": {"line1": "1 57490U 23111A   25356.59732561  .00000076  00000+0  56138-4 0  9991", "line2": "2 57490  98.7070  64.7311 0000787 114.9811 245.1448 14.19896032123802"}}, "geometry": {"type": "Point", "coordinates": [-113.89525247931884, 6.456975668579509]}}, {"type": "Feature", "properties": {"norad_id": 58584, "name": "ARKTIKA-M 2", "group": "weather", "lat": 61.84599447192491, "lon": -115.51158849178066, "alt_km": 37675.446810880814, "timestamp": "2025-12-22T23:36:20.342528+00:00", "meta": {"OBJECT_NAME": "ARKTIKA-M 2", "OBJECT_ID": "2023-198A", "EPOCH": "2025-12-20T07:20:06.590112", "MEAN_MOTION": 2.00602824, "ECCENTRICITY": 0.68654675, "INCLINATION": 63.225, "RA_OF_ASC_NODE": 174.0676, "ARG_OF_PERICENTER": 268.0739, "MEAN_ANOMALY": 18.8406, "EPHEMERIS_TYPE": 0, "CLASSIFICATION_TYPE": "U", "NORAD_CAT_ID": 58584, "ELEMENT_SET_NO": 999, "REV_AT_EPOCH": 1473, "BSTAR": 0, "MEAN_MOTION_DOT": 2.01e-06, "MEAN_MOTION_DDOT": 0}, "tle": {"line1": "1 58584U 23198A   25354.30563183  .00000201  00000+0  00000+0 0  9992", "line2": "2 58584  63.2250 174.0676 6865467 268.0739  18.8406  2.00602824 14734"}}, "geometry": {"type": "Point", "coordinates": [-115.51158849178066, 61.84599447192491]}}, {"type": "Feature", "properties": {"norad_id": 58645, "name": "TIANMU-1 11", "group": "weather", "lat": -10.227316576986814, "lon": 17.763015461158865, "alt_km": 495.31851025048036, "timestamp": "2025-12-22T23:36:20.342543+00:00", "meta": {"OBJECT_NAME": "TIANMU-1 11", "OBJECT_ID": "2023-205A", "EPOCH": "2025-12-22T14:12:01.092384", "MEAN_MOTION": 15.24711219, "ECCENTRICITY": 0.00075416, "INCLINATION": 97.3593, "RA_OF_ASC_NODE": 16.0418, "ARG_OF_PERICENTER": 268.3007, "MEAN_ANOMALY": 91.7367, "EPHEMERIS_TYPE": 0, "CLASSIFICATION_TYPE": "U", "NORAD_CAT_ID": 58645, "ELEMENT_SET_NO": 999, "REV_AT_EPOCH": 11059, "BSTAR": 0.00025244472, "MEAN_MOTION_DOT": 6.179e-05, "MEAN_MOTION_DDOT": 0}, "tle": {"line1": "1 58645U 23205A   25356.59167931  .00006179  00000+0  25244-3 0  9994", "line2": "2 58645  97.3593  16.0418 0007541 268.3007  91.7367 15.24711219110591"}}, "geometry": {"type": "Point", "coordinates": [17.763015461158865, -10.227316576986814]}}, {"type": "Feature", "properties": {"norad_id": 58646, "name": "TIANMU-1 12", "group": "weather", "lat": -17.59807885867052, "lon": -166.1203004431028, "alt_km": 494.32653799511536, "timestamp": "2025-12-22T23:36:20.342555+00:00", "meta": {"OBJECT_NAME": "TIANMU-1 12", "OBJECT_ID": "2023-205B", "EPOCH": "2025-12-22T13:17:23.306208", "MEAN_MOTION": 15.24596942, "ECCENTRICITY": 0.00058591, "INCLINATION": 97.3581, "RA_OF_ASC_NODE": 15.8066, "ARG_OF_PERICENTER": 246.6772, "MEAN_ANOMALY": 113.3849, "EPHEMERIS_TYPE": 0, "CLASSIFICATION_TYPE": "U", "NORAD_CAT_ID": 58646, "ELEMENT_SET_NO": 999, "REV_AT_EPOCH": 11057, "BSTAR": 0.00027590191, "MEAN_MOTION_DOT": 6.735e-05, "MEAN_MOTION_DDOT": 0}, "tle": {"line1": "1 58646U 23205B   25356.55374197  .00006735  00000+0  27590-3 0  9999", "line2": "2 58646  97.3581  15.8066 0005859 246.6772 113.3849 15.24596942110571"}}, "geometry": {"type": "Point", "coordinates": [-166.1203004431028, -17.59807885867052]}}, {"type": "Feature", "properties": {"norad_id": 58647, "name": "TIANMU-1 13", "group": "weather", "lat": 15.049266974263901, "lon": 14.442278620067075, "alt_km": 496.7330924700491, "timestamp": "2025-12-22T23:36:20.342565+00:00", "meta": {"OBJECT_NAME": "TIANMU-1 13", "OBJECT_ID": "2023-205C", "EPOCH": "2025-12-22T14:05:17.867040", "MEAN_MOTION": 15.24640294, "ECCENTRICITY": 0.00064469, "INCLINATION": 97.3609, "RA_OF_ASC_NODE": 16.0445, "ARG_OF_PERICENTER": 223.7859, "MEAN_ANOMALY": 136.2869, "EPHEMERIS_TYPE": 0, "CLASSIFICATION_TYPE": "U", "NORAD_CAT_ID": 58647, "ELEMENT_SET_NO": 999, "REV_AT_EPOCH": 11057, "BSTAR": 0.00025984017, "MEAN_MOTION_DOT": 6.347e-05, "MEAN_MOTION_DDOT": 0}, "tle": {"line1": "1 58647U 23205C   25356.58701235  .00006347  00000+0  25984-3 0  9994", "line2": "2 58647  97.3609  16.0445 0006446 223.7859 136.2869 15.24640294110578"}}, "geometry": {"type": "Point", "coordinates": [14.442278620067075, 15.049266974263901]}}, {"type": "Feature", "properties": {"norad_id": 58648, "name": "TIANMU-1 14", "group": "weather", "lat": 72.74756210286911, "lon": -139.6519419174412, "alt_km": 487.60776268370955, "timestamp": "2025-12-22T23:36:20.342575+00:00", "meta": {"OBJECT_NAME": "TIANMU-1 14", "OBJECT_ID": "2023-205D", "EPOCH": "2025-12-22T13:41:32.919360", "MEAN_MOTION": 15.24622975, "ECCENTRICITY": 0.00071533, "INCLINATION": 97.3541, "RA_OF_ASC_NODE": 15.3679, "ARG_OF_PERICENTER": 230.014, "MEAN_ANOMALY": 130.047, "EPHEMERIS_TYPE": 0, "CLASSIFICATION_TYPE": "U", "NORAD_CAT_ID": 58648, "ELEMENT_SET_NO": 999, "REV_AT_EPOCH": 11057, "BSTAR": 0.00024939957, "MEAN_MOTION_DOT": 6.087e-05, "MEAN_MOTION_DDOT": 0}, "tle": {"line1": "1 58648U 23205D   25356.57051990  .00006087  00000+0  24940-3 0  9992", "line2": "2 58648  97.3541  15.3679 0007153 230.0140 130.0470 15.24622975110571"}}, "geometry": {"type": "Point", "coordinates": [-139.6519419174412, 72.74756210286911]}}, {"type": "Feature", "properties": {"norad_id": 58660, "name": "TIANMU-1 19", "group": "weather", "lat": 54.53627836459518, "lon": -61.4284055509497, "alt_km": 476.2741111801306, "timestamp": "2025-12-22T23:36:20.342586+00:00", "meta": {"OBJECT_NAME": "TIANMU-1 19", "OBJECT_ID": "2023-208A", "EPOCH": "2025-12-22T13:37:52.970880", "MEAN_MOTION": 15.2801773, "ECCENTRICITY": 0.00046354, "INCLINATION": 97.4394, "RA_OF_ASC_NODE": 107.5868, "ARG_OF_PERICENTER": 210.3757, "MEAN_ANOMALY": 149.7215, "EPHEMERIS_TYPE": 0, "CLASSIFICATION_TYPE": "U", "NORAD_CAT_ID": 58660, "ELEMENT_SET_NO": 999, "REV_AT_EPOCH": 11032, "BSTAR": 0.00034331582, "MEAN_MOTION_DOT": 9.313e-05, "MEAN_MOTION_DDOT": 0}, "tle": {"line1": "1 58660U 23208A   25356.56797420  .00009313  00000+0  34332-3 0  9994", "line2": "2 58660  97.4394 107.5868 0004635 210.3757 149.7215 15.28017730110321"}}, "geometry": {"type": "Point", "coordinates": [-61.4284055509497, 54.53627836459518]}}, {"type": "Feature", "properties": {"norad_id": 58661, "name": "TIANMU-1 20", "group": "weather", "lat": -61.98503703533393, "lon": -85.74577612475203, "alt_km": 481.04611164101334, "timestamp": "2025-12-22T23:36:20.342598+00:00", "meta": {"OBJECT_NAME": "TIANMU-1 20", "OBJECT_ID": "2023-208B", "EPOCH": "2025-12-22T14:41:39.968160", "MEAN_MOTION": 15.29208862, "ECCENTRICITY": 0.00066777, "INCLINATION": 97.4333, "RA_OF_ASC_NODE": 108.0883, "ARG_OF_PERICENTER": 224.7148, "MEAN_ANOMALY": 135.3555, "EPHEMERIS_TYPE": 0, "CLASSIFICATION_TYPE": "U", "NORAD_CAT_ID": 58661, "ELEMENT_SET_NO": 999, "REV_AT_EPOCH": 11040, "BSTAR": 0.00034211396, "MEAN_MOTION_DOT": 9.629e-05, "MEAN_MOTION_DDOT": 0}, "tle": {"line1": "1 58661U 23208B   25356.61226815  .00009629  00000+0  34211-3 0  9992", "line2": "2 58661  97.4333 108.0883 0006677 224.7148 135.3555 15.29208862110405"}}, "geometry": {"type": "Point", "coordinates": [-85.74577612475203, -61.98503703533393]}}]}